[{"OBJECT_NAME":"HELIOS 1B","OBJECT_ID":"1999-064A","EPOCH":"2026-04-19T04:50:11.506848","MEAN_MOTION":14.87844469,"ECCENTRICITY":6.235e-5,"INCLINATION":98.1656,"RA_OF_ASC_NODE":12.6291,"ARG_OF_PERICENTER":42.922,"MEAN_ANOMALY":317.2044,"EPHEMERIS_TYPE":0,"CLASSIFICATION_TYPE":"U","NORAD_CAT_ID":25977,"ELEMENT_SET_NO":999,"REV_AT_EPOCH":69128,"BSTAR":0.00011530942,"MEAN_MOTION_DOT":9.96e-6,"MEAN_MOTION_DDOT":0},{"OBJECT_NAME":"TERRA","OBJECT_ID":"1999-068A","EPOCH":"2026-04-19T06:13:30.137376","MEAN_MOTION":14.61055286,"ECCENTRICITY":0.00034832,"INCLINATION":97.9514,"RA_OF_ASC_NODE":161.1271,"ARG_OF_PERICENTER":69.9714,"MEAN_ANOMALY":354.9806,"EPHEMERIS_TYPE":0,"CLASSIFICATION_TYPE":"U","NORAD_CAT_ID":25994,"ELEMENT_SET_NO":999,"REV_AT_EPOCH":40100,"BSTAR":6.3463768e-5,"MEAN_MOTION_DOT":2.67e-6,"MEAN_MOTION_DDOT":0},{"OBJECT_NAME":"SL-16 R/B","OBJECT_ID":"2000-006B","EPOCH":"2026-04-19T03:25:00.920928","MEAN_MOTION":14.15828312,"ECCENTRICITY":0.00147298,"INCLINATION":71.0043,"RA_OF_ASC_NODE":12.7778,"ARG_OF_PERICENTER":124.585,"MEAN_ANOMALY":235.6665,"EPHEMERIS_TYPE":0,"CLASSIFICATION_TYPE":"U","NORAD_CAT_ID":26070,"ELEMENT_SET_NO":999,"REV_AT_EPOCH":35428,"BSTAR":-7.925974e-6,"MEAN_MOTION_DOT":-6.3e-7,"MEAN_MOTION_DDOT":0},{"OBJECT_NAME":"TITAN 4B R/B","OBJECT_ID":"2000-047B","EPOCH":"2026-04-19T05:47:46.367232","MEAN_MOTION":15.09880936,"ECCENTRICITY":0.00417273,"INCLINATION":67.9866,"RA_OF_ASC_NODE":286.4491,"ARG_OF_PERICENTER":348.7535,"MEAN_ANOMALY":11.2677,"EPHEMERIS_TYPE":0,"CLASSIFICATION_TYPE":"U","NORAD_CAT_ID":26474,"ELEMENT_SET_NO":999,"REV_AT_EPOCH":39903,"BSTAR":0.0001231843,"MEAN_MOTION_DOT":1.9e-5,"MEAN_MOTION_DDOT":0},{"OBJECT_NAME":"ENVISAT","OBJECT_ID":"2002-009A","EPOCH":"2026-04-19T07:25:04.110240","MEAN_MOTION":14.3905019,"ECCENTRICITY":0.00011506,"INCLINATION":98.3791,"RA_OF_ASC_NODE":61.9565,"ARG_OF_PERICENTER":85.4373,"MEAN_ANOMALY":87.1097,"EPHEMERIS_TYPE":0,"CLASSIFICATION_TYPE":"U","NORAD_CAT_ID":27386,"ELEMENT_SET_NO":999,"REV_AT_EPOCH":26501,"BSTAR":3.1400913e-5,"MEAN_MOTION_DOT":5.4e-7,"MEAN_MOTION_DDOT":0},{"OBJECT_NAME":"IDEFIX & ARIANE 42P R/B","OBJECT_ID":"2002-021B","EPOCH":"2026-04-19T06:12:38.534112","MEAN_MOTION":14.31052217,"ECCENTRICITY":0.0012973,"INCLINATION":98.5915,"RA_OF_ASC_NODE":47.3921,"ARG_OF_PERICENTER":69.7782,"MEAN_ANOMALY":290.4795,"EPHEMERIS_TYPE":0,"CLASSIFICATION_TYPE":"U","NORAD_CAT_ID":27422,"ELEMENT_SET_NO":999,"REV_AT_EPOCH":24982,"BSTAR":7.572319e-5,"MEAN_MOTION_DOT":1.56e-6,"MEAN_MOTION_DDOT":0},{"OBJECT_NAME":"AQUA","OBJECT_ID":"2002-022A","EPOCH":"2026-04-19T06:38:51.556704","MEAN_MOTION":14.62063567,"ECCENTRICITY":0.00019013,"INCLINATION":98.4237,"RA_OF_ASC_NODE":77.4025,"ARG_OF_PERICENTER":103.2439,"MEAN_ANOMALY":1.275,"EPHEMERIS_TYPE":0,"CLASSIFICATION_TYPE":"U","NORAD_CAT_ID":27424,"ELEMENT_SET_NO":999,"REV_AT_EPOCH":27466,"BSTAR":0.00012249627,"MEAN_MOTION_DOT":5.66e-6,"MEAN_MOTION_DDOT":0},{"OBJECT_NAME":"CZ-4B R/B","OBJECT_ID":"2002-024C","EPOCH":"2026-04-19T02:23:21.727392","MEAN_MOTION":14.14554699,"ECCENTRICITY":0.00490397,"INCLINATION":98.8757,"RA_OF_ASC_NODE":162.2866,"ARG_OF_PERICENTER":268.1467,"MEAN_ANOMALY":111.691,"EPHEMERIS_TYPE":0,"CLASSIFICATION_TYPE":"U","NORAD_CAT_ID":27432,"ELEMENT_SET_NO":999,"REV_AT_EPOCH":23495,"BSTAR":3.5536903e-5,"MEAN_MOTION_DOT":2.4e-7,"MEAN_MOTION_DDOT":0},{"OBJECT_NAME":"MIDORI II (ADEOS-II)","OBJECT_ID":"2002-056A","EPOCH":"2026-04-19T03:01:26.212512","MEAN_MOTION":14.29314649,"ECCENTRICITY":4.637e-5,"INCLINATION":98.7834,"RA_OF_ASC_NODE":67.9012,"ARG_OF_PERICENTER":146.76,"MEAN_ANOMALY":213.3611,"EPHEMERIS_TYPE":0,"CLASSIFICATION_TYPE":"U","NORAD_CAT_ID":27597,"ELEMENT_SET_NO":999,"REV_AT_EPOCH":21607,"BSTAR":9.3161486e-5,"MEAN_MOTION_DOT":1.92e-6,"MEAN_MOTION_DDOT":0},{"OBJECT_NAME":"H-2A R/B","OBJECT_ID":"2002-056E","EPOCH":"2026-04-19T04:10:10.591680","MEAN_MOTION":14.3378884,"ECCENTRICITY":0.00710891,"INCLINATION":98.3268,"RA_OF_ASC_NODE":68.0159,"ARG_OF_PERICENTER":41.7473,"MEAN_ANOMALY":329.8197,"EPHEMERIS_TYPE":0,"CLASSIFICATION_TYPE":"U","NORAD_CAT_ID":27601,"ELEMENT_SET_NO":999,"REV_AT_EPOCH":21991,"BSTAR":8.8914977e-5,"MEAN_MOTION_DOT":2.13e-6,"MEAN_MOTION_DDOT":0},{"OBJECT_NAME":"CZ-4B R/B","OBJECT_ID":"2003-049C","EPOCH":"2026-04-19T05:32:51.703008","MEAN_MOTION":14.55055241,"ECCENTRICITY":0.00492906,"INCLINATION":98.69,"RA_OF_ASC_NODE":105.7362,"ARG_OF_PERICENTER":107.5889,"MEAN_ANOMALY":253.0699,"EPHEMERIS_TYPE":0,"CLASSIFICATION_TYPE":"U","NORAD_CAT_ID":28059,"ELEMENT_SET_NO":999,"REV_AT_EPOCH":19249,"BSTAR":7.4019351e-5,"MEAN_MOTION_DOT":2.73e-6,"MEAN_MOTION_DDOT":0},{"OBJECT_NAME":"CZ-2C R/B","OBJECT_ID":"2004-012C","EPOCH":"2026-04-19T03:47:17.626560","MEAN_MOTION":15.6949585,"ECCENTRICITY":0.0013996,"INCLINATION":97.7137,"RA_OF_ASC_NODE":178.426,"ARG_OF_PERICENTER":158.0883,"MEAN_ANOMALY":202.0979,"EPHEMERIS_TYPE":0,"CLASSIFICATION_TYPE":"U","NORAD_CAT_ID":28222,"ELEMENT_SET_NO":999,"REV_AT_EPOCH":21061,"BSTAR":0.00053599373,"MEAN_MOTION_DOT":0.00063575,"MEAN_MOTION_DDOT":0},{"OBJECT_NAME":"SL-16 R/B","OBJECT_ID":"2004-021B","EPOCH":"2026-04-19T02:48:02.821248","MEAN_MOTION":14.1460575,"ECCENTRICITY":0.00065639,"INCLINATION":70.9999,"RA_OF_ASC_NODE":147.6569,"ARG_OF_PERICENTER":317.338,"MEAN_ANOMALY":42.7232,"EPHEMERIS_TYPE":0,"CLASSIFICATION_TYPE":"U","NORAD_CAT_ID":28353,"ELEMENT_SET_NO":999,"REV_AT_EPOCH":12855,"BSTAR":-2.3549618e-5,"MEAN_MOTION_DOT":-9.3e-7,"MEAN_MOTION_DDOT":0},{"OBJECT_NAME":"CZ-4B R/B","OBJECT_ID":"2004-035C","EPOCH":"2026-04-19T01:56:43.843200","MEAN_MOTION":15.29725907,"ECCENTRICITY":0.00316647,"INCLINATION":97.3426,"RA_OF_ASC_NODE":142.8441,"ARG_OF_PERICENTER":181.983,"MEAN_ANOMALY":178.129,"EPHEMERIS_TYPE":0,"CLASSIFICATION_TYPE":"U","NORAD_CAT_ID":28415,"ELEMENT_SET_NO":999,"REV_AT_EPOCH":18608,"BSTAR":0.00020984074,"MEAN_MOTION_DOT":6.056e-5,"MEAN_MOTION_DDOT":0},{"OBJECT_NAME":"CZ-2C R/B","OBJECT_ID":"2004-046B","EPOCH":"2026-04-19T05:22:21.472032","MEAN_MOTION":14.27007876,"ECCENTRICITY":0.01401956,"INCLINATION":98.1971,"RA_OF_ASC_NODE":21.6812,"ARG_OF_PERICENTER":35.4373,"MEAN_ANOMALY":325.6026,"EPHEMERIS_TYPE":0,"CLASSIFICATION_TYPE":"U","NORAD_CAT_ID":28480,"ELEMENT_SET_NO":999,"REV_AT_EPOCH":11428,"BSTAR":5.8371516e-5,"MEAN_MOTION_DOT":1.17e-6,"MEAN_MOTION_DDOT":0},{"OBJECT_NAME":"ARIANE 5 R/B","OBJECT_ID":"2004-049H","EPOCH":"2026-04-19T04:30:04.320000","MEAN_MOTION":14.85341917,"ECCENTRICITY":0.00832652,"INCLINATION":98.2682,"RA_OF_ASC_NODE":279.1771,"ARG_OF_PERICENTER":219.1449,"MEAN_ANOMALY":140.3723,"EPHEMERIS_TYPE":0,"CLASSIFICATION_TYPE":"U","NORAD_CAT_ID":28499,"ELEMENT_SET_NO":999,"REV_AT_EPOCH":15180,"BSTAR":8.1461588e-5,"MEAN_MOTION_DOT":6.79e-6,"MEAN_MOTION_DDOT":0},{"OBJECT_NAME":"CZ-2D R/B","OBJECT_ID":"2005-024B","EPOCH":"2026-04-18T14:52:28.591104","MEAN_MOTION":15.63777768,"ECCENTRICITY":0.00036663,"INCLINATION":97.3542,"RA_OF_ASC_NODE":125.3372,"ARG_OF_PERICENTER":191.2621,"MEAN_ANOMALY":168.8556,"EPHEMERIS_TYPE":0,"CLASSIFICATION_TYPE":"U","NORAD_CAT_ID":28738,"ELEMENT_SET_NO":999,"REV_AT_EPOCH":14601,"BSTAR":0.00044296095,"MEAN_MOTION_DOT":0.00041423,"MEAN_MOTION_DDOT":0}]
