HELIOS 1B               
1 25977U 99064A   26109.20152207  .00000996  00000+0  11531-3 0  9992
2 25977  98.1656  12.6291 0000623  42.9220 317.2044 14.87844469691280
TERRA                   
1 25994U 99068A   26109.25937659  .00000267  00000+0  63464-4 0  9996
2 25994  97.9514 161.1271 0003483  69.9714 354.9806 14.61055286401007
SL-16 R/B               
1 26070U 00006B   26109.14237177 -.00000063  00000+0 -79260-5 0  9990
2 26070  71.0043  12.7778 0014729 124.5850 235.6665 14.15828312354282
TITAN 4B R/B            
1 26474U 00047B   26109.24150888  .00001900  00000+0  12318-3 0  9995
2 26474  67.9866 286.4491 0041727 348.7535  11.2677 15.09880936399034
ENVISAT                 
1 27386U 02009A   26109.30907535  .00000054  00000+0  31401-4 0  9998
2 27386  98.3791  61.9565 0001150  85.4373  87.1097 14.39050190265012
IDEFIX & ARIANE 42P R/B 
1 27422U 02021B   26109.25877933  .00000156  00000+0  75723-4 0  9993
2 27422  98.5915  47.3921 0012973  69.7782 290.4795 14.31052217249820
AQUA                    
1 27424U 02022A   26109.27698561  .00000566  00000+0  12250-3 0  9996
2 27424  98.4237  77.4025 0001901 103.2439   1.2750 14.62063567274662
CZ-4B R/B               
1 27432U 02024C   26109.09955703  .00000024  00000+0  35537-4 0  9994
2 27432  98.8757 162.2866 0049039 268.1467 111.6910 14.14554699234954
MIDORI II (ADEOS-II)    
1 27597U 02056A   26109.12599783  .00000192  00000+0  93161-4 0  9990
2 27597  98.7834  67.9012 0000463 146.7600 213.3611 14.29314649216079
H-2A R/B                
1 27601U 02056E   26109.17373370  .00000213  00000+0  88915-4 0  9998
2 27601  98.3268  68.0159 0071089  41.7473 329.8197 14.33788840219911
CZ-4B R/B               
1 28059U 03049C   26109.23115397  .00000273  00000+0  74019-4 0  9995
2 28059  98.6900 105.7362 0049290 107.5889 253.0699 14.55055241192495
CZ-2C R/B               
1 28222U 04012C   26109.15784290  .00063575  00000+0  53599-3 0  9996
2 28222  97.7137 178.4260 0013996 158.0883 202.0979 15.69495850210612
SL-16 R/B               
1 28353U 04021B   26109.11669932 -.00000093  00000+0 -23550-4 0  9995
2 28353  70.9999 147.6569 0006563 317.3380  42.7232 14.14605750128553
CZ-4B R/B               
1 28415U 04035C   26109.08106300  .00006056  00000+0  20984-3 0  9990
2 28415  97.3426 142.8441 0031664 181.9830 178.1290 15.29725907186085
CZ-2C R/B               
1 28480U 04046B   26109.22385963  .00000117  00000+0  58372-4 0  9999
2 28480  98.1971  21.6812 0140195  35.4373 325.6026 14.27007876114286
ARIANE 5 R/B            
1 28499U 04049H   26109.18755000  .00000679  00000+0  81462-4 0  9999
2 28499  98.2682 279.1771 0083265 219.1449 140.3723 14.85341917151805
CZ-2D R/B               
1 28738U 05024B   26108.61977536  .00041423  00000+0  44296-3 0  9991
2 28738  97.3542 125.3372 0003666 191.2621 168.8556 15.63777768146014
